$$SOE
2460154.500000000, A.D. 2023-Jul-29 00:00:00.0000, 1.074711594547992E+08, 3.084594241509772E+08, 3.137476826056950E+07,
2460161.500000000, A.D. 2023-Aug-05 00:00:00.0000, 9.714475189191978E+07, 3.150621153402937E+08, 3.135177046435763E+07,
2460168.500000000, A.D. 2023-Aug-12 00:00:00.0000, 8.668853797018252E+07, 3.212438087738929E+08, 3.128686428123713E+07,
2460175.500000000, A.D. 2023-Aug-19 00:00:00.0000, 7.611959557475793E+07, 3.270077552914035E+08, 3.118125867431828E+07,
2460182.500000000, A.D. 2023-Aug-26 00:00:00.0000, 6.545427839298322E+07, 3.323576732157542E+08, 3.103616135032055E+07,
2460189.500000000, A.D. 2023-Sep-02 00:00:00.0000, 5.470823622329361E+07, 3.372976905609291E+08, 3.085277510248820E+07,
2460196.500000000, A.D. 2023-Sep-09 00:00:00.0000, 4.389643716992442E+07, 3.418322923611835E+08, 3.063229467800148E+07,
2460203.500000000, A.D. 2023-Sep-16 00:00:00.0000, 3.303319138073248E+07, 3.459662727400547E+08, 3.037590409493431E+07,
2460210.500000000, A.D. 2023-Sep-23 00:00:00.0000, 2.213217630938810E+07, 3.497046916778186E+08, 3.008477434319170E+07,
2460217.500000000, A.D. 2023-Sep-30 00:00:00.0000, 1.120646279649755E+07, 3.530528373442676E+08, 2.976006155112340E+07,
2460224.500000000, A.D. 2023-Oct-07 00:00:00.0000, 2.685393140689025E+05, 3.560161931330175E+08, 2.940290574563900E+07,
2460231.500000000, A.D. 2023-Oct-14 00:00:00.0000, -1.066966484167838E+07, 3.586004057657797E+08, 2.901442979967248E+07,
2460238.500000000, A.D. 2023-Oct-21 00:00:00.0000, -2.159675439370968E+07, 3.608112557780272E+08, 2.859573836733180E+07,
2460245.500000000, A.D. 2023-Oct-28 00:00:00.0000, -3.250184255088465E+07, 3.626546323732746E+08, 2.814791709006260E+07,
2460252.500000000, A.D. 2023-Nov-04 00:00:00.0000, -4.337452647561432E+07, 3.641365116076978E+08, 2.767203209543540E+07,
2460259.500000000, A.D. 2023-Nov-11 00:00:00.0000, -5.420486367674756E+07, 3.652629370511242E+08, 2.716912969617854E+07,
2460266.500000000, A.D. 2023-Nov-18 00:00:00.0000, -6.498334918826277E+07, 3.660400026229193E+08, 2.664023624011444E+07,
2460273.500000000, A.D. 2023-Nov-25 00:00:00.0000, -7.570089352400045E+07, 3.664738374078183E+08, 2.608635808565313E+07,
2460280.500000000, A.D. 2023-Dec-02 00:00:00.0000, -8.634880142737144E+07, 3.665705922457246E+08, 2.550848168216197E+07,
2460287.500000000, A.D. 2023-Dec-09 00:00:00.0000, -9.691875136808184E+07, 3.663364278628175E+08, 2.490757372840856E+07,
2460294.500000000, A.D. 2023-Dec-16 00:00:00.0000, -1.074027755119202E+08, 3.657775043982264E+08, 2.428458137014268E+07,
2460301.500000000, A.D. 2023-Dec-23 00:00:00.0000, -1.177932398168407E+08, 3.648999728669752E+08, 2.364043244833918E+07,
2460308.500000000, A.D. 2023-Dec-30 00:00:00.0000, -1.280828255888802E+08, 3.637099694738640E+08, 2.297603599506187E+07,
2460315.500000000, A.D. 2024-Jan-06 00:00:00.0000, -1.382645142541137E+08, 3.622136102916030E+08, 2.229228293569423E+07,
2460322.500000000, A.D. 2024-Jan-13 00:00:00.0000, -1.483315721546703E+08, 3.604169843730313E+08, 2.159004654929470E+07,
2460329.500000000, A.D. 2024-Jan-20 00:00:00.0000, -1.582775341302475E+08, 3.583261482751820E+08, 2.087018281921020E+07,
2460336.500000000, A.D. 2024-Jan-27 00:00:00.0000, -1.680961878933936E+08, 3.559471225567397E+08, 2.013353090650705E+07,
2460343.500000000, A.D. 2024-Feb-03 00:00:00.0000, -1.777815596025494E+08, 3.532858892153199E+08, 1.938091370213668E+07,
2460350.500000000, A.D. 2024-Feb-10 00:00:00.0000, -1.873279003313746E+08, 3.503483896971998E+08, 1.861313840392554E+07,
2460357.500000000, A.D. 2024-Feb-17 00:00:00.0000, -1.967296732705837E+08, 3.471405234210140E+08, 1.783099710248297E+07,
2460364.500000000, A.D. 2024-Feb-24 00:00:00.0000, -2.059815415995825E+08, 3.436681467715802E+08, 1.703526737063453E+07,
2460371.500000000, A.D. 2024-Mar-02 00:00:00.0000, -2.150783569705339E+08, 3.399370724785911E+08, 1.622671284810914E+07,
2460378.500000000, A.D. 2024-Mar-09 00:00:00.0000, -2.240151484375933E+08, 3.359530692693416E+08, 1.540608380102417E+07,
2460385.500000000, A.D. 2024-Mar-16 00:00:00.0000, -2.327871114080053E+08, 3.317218619489750E+08, 1.457411763380770E+07,
2460392.500000000, A.D. 2024-Mar-23 00:00:00.0000, -2.413895966922959E+08, 3.272491329780406E+08, 1.373153945182487E+07,
2460399.500000000, A.D. 2024-Mar-30 00:00:00.0000, -2.498181018701306E+08, 3.225405254875637E+08, 1.287906287645997E+07,
2460406.500000000, A.D. 2024-Apr-06 00:00:00.0000, -2.580682646887412E+08, 3.176016443346911E+08, 1.201739081257732E+07,
2460413.500000000, A.D. 2024-Apr-13 00:00:00.0000, -2.661358549156868E+08, 3.124380560037211E+08, 1.114721591019128E+07,
2460420.500000000, A.D. 2024-Apr-20 00:00:00.0000, -2.740167655781935E+08, 3.070552900032550E+08, 1.026922102584356E+07,
2460427.500000000, A.D. 2024-Apr-27 00:00:00.0000, -2.817070050863713E+08, 3.014588411799342E+08, 9.384079776309907E+06,
2460434.500000000, A.D. 2024-May-04 00:00:00.0000, -2.892026901307687E+08, 2.956541722279509E+08, 8.492457118710309E+06,
2460441.500000000, A.D. 2024-May-11 00:00:00.0000, -2.965000390957327E+08, 2.896467162760591E+08, 7.595009926728770E+06,
2460448.500000000, A.D. 2024-May-18 00:00:00.0000, -3.035953658882068E+08, 2.834418795596682E+08, 6.692387557234541E+06,
2460455.500000000, A.D. 2024-May-25 00:00:00.0000, -3.104850741401885E+08, 2.770450441591830E+08, 5.785232404627353E+06,
2460462.500000000, A.D. 2024-Jun-01 00:00:00.0000, -3.171656517090797E+08, 2.704615707373524E+08, 4.874180433015481E+06,
2460469.500000000, A.D. 2024-Jun-08 00:00:00.0000, -3.236336652147490E+08, 2.636968012444214E+08, 3.959861662150294E+06,
2460476.500000000, A.D. 2024-Jun-15 00:00:00.0000, -3.298857542002330E+08, 2.567560621291545E+08, 3.042900615499616E+06,
2460483.500000000, A.D. 2024-Jun-22 00:00:00.0000, -3.359186259099952E+08, 2.496446692254083E+08, 2.123916919151768E+06,
2460490.500000000, A.D. 2024-Jun-29 00:00:00.0000, -3.417290527983963E+08, 2.423679324914039E+08, 1.203526097606763E+06,
2460497.500000000, A.D. 2024-Jul-06 00:00:00.0000, -3.473138701117491E+08, 2.349311581305032E+08, 2.823401222748160E+05,
2460504.500000000, A.D. 2024-Jul-13 00:00:00.0000, -3.526699715811275E+08, 2.273396509142146E+08, -6.390322345748693E+05,
2460511.500000000, A.D. 2024-Jul-20 00:00:00.0000, -3.577943052027257E+08, 2.195987178535695E+08, -1.559984963969767E+06,
2460518.500000000, A.D. 2024-Jul-27 00:00:00.0000, -3.626838697535260E+08, 2.117136722598815E+08, -2.479914320429891E+06,
2460525.500000000, A.D. 2024-Aug-03 00:00:00.0000, -3.673357117602469E+08, 2.036898378190302E+08, -3.398218313262746E+06,
2460532.500000000, A.D. 2024-Aug-10 00:00:00.0000, -3.717469227498639E+08, 1.955325526729683E+08, -4.314296203880981E+06,
2460539.500000000, A.D. 2024-Aug-17 00:00:00.0000, -3.759146367326689E+08, 1.872471735304978E+08, -5.227548011375122E+06,
2460546.500000000, A.D. 2024-Aug-24 00:00:00.0000, -3.798360278904747E+08, 1.788390797887637E+08, -6.137374030728459E+06,
2460553.500000000, A.D. 2024-Aug-31 00:00:00.0000, -3.835083083545960E+08, 1.703136776099351E+08, -7.043174379462384E+06,
2460560.500000000, A.D. 2024-Sep-07 00:00:00.0000, -3.869287257073816E+08, 1.616764040857625E+08, -7.944348595989756E+06,
2460567.500000000, A.D. 2024-Sep-14 00:00:00.0000, -3.900945601211401E+08, 1.529327324913051E+08, -8.840295216035292E+06,
2460574.500000000, A.D. 2024-Sep-21 00:00:00.0000, -3.930031231644064E+08, 1.440881790450916E+08, -9.730411107274704E+06,
2460581.500000000, A.D. 2024-Sep-28 00:00:00.0000, -3.956517587671700E+08, 1.351483079543316E+08, -1.061409078139947E+07,
2460588.500000000, A.D. 2024-Oct-05 00:00:00.0000, -3.980378426777410E+08, 1.261187347544625E+08, -1.149072601981942E+07,
2460595.500000000, A.D. 2024-Oct-12 00:00:00.0000, -4.001587807731394E+08, 1.170051309278103E+08, -1.235970553570767E+07,
2460602.500000000, A.D. 2024-Oct-19 00:00:00.0000, -4.020120079808508E+08, 1.078132295347578E+08, -1.322041453378474E+07,
2460609.500000000, A.D. 2024-Oct-26 00:00:00.0000, -4.035949878544459E+08, 9.854883106333250E+07, -1.407223423055840E+07,
2460616.500000000, A.D. 2024-Nov-02 00:00:00.0000, -4.049052125555223E+08, 8.921780935717565E+07, -1.491454137073892E+07,
2460623.500000000, A.D. 2024-Nov-09 00:00:00.0000, -4.059402031558450E+08, 7.982611765049882E+07, -1.574670774689425E+07,
2460630.500000000, A.D. 2024-Nov-16 00:00:00.0000, -4.066975102460639E+08, 7.037979471804100E+07, -1.656809972466821E+07,
2460637.500000000, A.D. 2024-Nov-23 00:00:00.0000, -4.071747148183706E+08, 6.088497109800972E+07, -1.737807778201440E+07,
2460644.500000000, A.D. 2024-Nov-30 00:00:00.0000, -4.073694292310352E+08, 5.134787535337481E+07, -1.817599608518777E+07,
2460651.500000000, A.D. 2024-Dec-07 00:00:00.0000, -4.072792978533902E+08, 4.177484080009648E+07, -1.896120210579306E+07,
2460658.500000000, A.D. 2024-Dec-14 00:00:00.0000, -4.069019980998462E+08, 3.217231393362069E+07, -1.973303611599147E+07,
2460665.500000000, A.D. 2024-Dec-21 00:00:00.0000, -4.062352441952853E+08, 2.254686331937744E+07, -2.049083045126808E+07,
2460672.500000000, A.D. 2024-Dec-28 00:00:00.0000, -4.052767917277713E+08, 1.290518598748641E+07, -2.123390896526533E+07,
2460679.500000000, A.D. 2025-Jan-04 00:00:00.0000, -4.040244404193795E+08, 3.254113716746209E+06, -2.196158672137249E+07,
2460686.500000000, A.D. 2025-Jan-11 00:00:00.0000, -4.024760369640301E+08, -6.399379126279589E+06, -2.267316961874056E+07,
2460693.500000000, A.D. 2025-Jan-18 00:00:00.0000, -4.006294788828939E+08, -1.604816710891267E+07, -2.336795394489677E+07,
2460700.500000000, A.D. 2025-Jan-25 00:00:00.0000, -3.984827191935102E+08, -2.568496508605348E+07, -2.404522591794547E+07,
2460707.500000000, A.D. 2025-Feb-01 00:00:00.0000, -3.960337717455724E+08, -3.530231941287301E+07, -2.470426124015894E+07,
2460714.500000000, A.D. 2025-Feb-08 00:00:00.0000, -3.932807172102121E+08, -4.489259899554265E+07, -2.534432466883984E+07,
2460721.500000000, A.D. 2025-Feb-15 00:00:00.0000, -3.902217097432791E+08, -5.444798620127355E+07, -2.596466961131080E+07,
$$EOE